{
    "links": {
        "self": "http://www.neowsapp.com/rest/v1/neo/3306215?api_key=iIulBulltgU6a56xZRHN4H3l9WmuAYTsLGpBGhQ2"
    },
    "id": "3306215",
    "neo_reference_id": "3306215",
    "name": "(2005 XC1)",
    "designation": "2005 XC1",
    "nasa_jpl_url": "http://ssd.jpl.nasa.gov/sbdb.cgi?sstr=3306215",
    "absolute_magnitude_h": 23.9,
    "estimated_diameter": {
        "kilometers": {
            "estimated_diameter_min": 0.04411182,
            "estimated_diameter_max": 0.0986370281
        },
        "meters": {
            "estimated_diameter_min": 44.1118199997,
            "estimated_diameter_max": 98.6370281305
        },
        "miles": {
            "estimated_diameter_min": 0.0274098057,
            "estimated_diameter_max": 0.0612901888
        },
        "feet": {
            "estimated_diameter_min": 144.7238235278,
            "estimated_diameter_max": 323.6123073718
        }
    },
    "is_potentially_hazardous_asteroid": false,
    "close_approach_data": [
        {
            "close_approach_date": "2005-12-06",
            "close_approach_date_full": "2005-Dec-06 00:31",
            "epoch_date_close_approach": 1133829060000,
            "relative_velocity": {
                "kilometers_per_second": "10.3365237277",
                "kilometers_per_hour": "37211.4854195807",
                "miles_per_hour": "23121.7699264056"
            },
            "miss_distance": {
                "astronomical": "0.0434291503",
                "lunar": "16.8939394667",
                "kilometers": "6496908.380789861",
                "miles": "4036991.6700316418"
            },
            "orbiting_body": "Earth"
        }
    ],
    "orbital_data": {
        "orbit_id": "10",
        "orbit_determination_date": "2017-04-06 09:09:42",
        "first_observation_date": "2005-12-04",
        "last_observation_date": "2005-12-10",
        "data_arc_in_days": 6,
        "observations_used": 41,
        "orbit_uncertainty": "8",
        "minimum_orbit_intersection": ".0389578",
        "jupiter_tisserand_invariant": "3.162",
        "epoch_osculation": "2453711.5",
        "eccentricity": ".5938974961523616",
        "semi_major_axis": "2.509468738473986",
        "inclination": "13.0093986652408",
        "ascending_node_longitude": "79.23751045158376",
        "orbital_period": "1452.015029438831",
        "perihelion_distance": "1.01910153802166",
        "perihelion_argument": "349.6825671453044",
        "aphelion_distance": "3.999835938926311",
        "perihelion_time": "2453705.667133787446",
        "mean_anomaly": "1.44615020777779",
        "mean_motion": ".247931317996847",
        "equinox": "J2000",
        "orbit_class": {
            "orbit_class_type": "AMO",
            "orbit_class_description": "Near-Earth asteroid orbits similar to that of 1221 Amor",
            "orbit_class_range": "1.017 AU < q (perihelion) < 1.3 AU"
        }
    },
    "is_sentry_object": false
}